OBJECT_NAME,OBJECT_ID,EPOCH,MEAN_MOTION,ECCENTRICITY,INCLINATION,RA_OF_ASC_NODE,ARG_OF_PERICENTER,MEAN_ANOMALY,EPHEMERIS_TYPE,CLASSIFICATION_TYPE,NORAD_CAT_ID,ELEMENT_SET_NO,REV_AT_EPOCH,BSTAR,MEAN_MOTION_DOT,MEAN_MOTION_DDOT
INTELSAT 902 (IS-902),2001-039A,2026-06-13T16:20:10.472064,1.00271249,.0004504,6.1088,71.8271,6.9820,18.1229,0,U,26900,999,9066,0,-.277E-5,0
INTELSAT 904 (IS-904),2002-007A,2026-06-13T01:12:23.771232,1.00271515,.00065047,6.9094,69.2332,3.3250,175.4234,0,U,27380,999,5172,0,-.218E-5,0
DIRECTV 5 (TEMPO 1),2002-023A,2026-06-13T16:03:04.612032,1.00271397,.0003211,4.8686,75.3532,20.8434,296.4489,0,U,27426,999,8808,0,-.5E-6,0
INTELSAT 905 (IS-905),2002-027A,2026-06-13T11:14:26.678976,1.00271998,.00038085,6.7440,69.8438,20.0607,203.2730,0,U,27438,999,5132,0,.1E-5,0
GALAXY 3C (G-3C),2002-030A,2026-06-13T14:24:45.037728,1.00271316,.0001556,3.7220,78.0224,34.2316,270.9982,0,U,27445,999,4645,0,-.144E-5,0
INTELSAT 906 (IS-906),2002-041A,2026-06-13T20:00:27.137088,1.00272260,.000465,5.7945,72.9636,3.8150,189.6105,0,U,27513,999,8699,0,.18E-6,0
GALAXY 13 (HORIZONS-1),2003-044A,2026-06-13T17:34:22.239840,1.00269471,.0002297,1.4108,83.9082,347.9194,303.8082,0,U,27954,999,4653,0,.142E-5,0
INTELSAT 10-02,2004-022A,2026-06-13T14:51:30.657312,1.00269844,.0000155,0.0136,336.6129,229.4472,277.7349,0,U,28358,999,8052,0,0,0
DIRECTV 8,2005-019A,2026-06-13T17:43:13.891008,1.00270831,.0002748,0.0258,68.5496,17.9205,322.3320,0,U,28659,999,7703,0,.12E-6,0
GALAXY 28 (G-28),2005-022A,2026-06-13T19:52:02.327808,1.00271291,.0002874,3.2903,78.9748,2.0568,92.0150,0,U,28702,999,5194,0,-.192E-5,0
GALAXY 16 (G-16),2006-023A,2026-06-13T19:31:38.635104,1.00270630,.0002432,0.0477,142.2656,305.9089,7.8567,0,U,29236,999,7294,0,-.116E-5,0
DIRECTV 9S,2006-043A,2026-06-13T16:05:41.860032,1.00270856,.0004837,2.4115,80.9431,10.9180,310.3566,0,U,29494,999,5134,0,-.104E-5,0
GALAXY 17 (G-17),2007-016B,2026-06-13T19:35:33.909216,1.00269698,.0004745,2.9635,79.9420,21.6726,9.3966,0,U,31307,999,6977,0,-.198E-5,0
INTELSAT 11 (IS-11),2007-044B,2026-06-13T18:57:19.425024,0.99052231,.0002194,3.5564,78.7090,90.9252,157.5871,0,U,32253,999,6841,0,-.275E-5,0
HORIZONS-2,2007-063B,2026-06-13T19:38:48.596928,1.00269502,.0003723,2.5932,80.6659,0.0553,42.3261,0,U,32388,999,6778,0,-.245E-5,0
DIRECTV 11,2008-013A,2026-06-13T10:58:13.992096,1.00271658,.00003175,0.0087,254.9847,115.1892,316.9799,0,U,32729,999,4555,0,-.114E-5,0
GALAXY 18 (G-18),2008-024A,2026-06-13T17:42:06.499008,1.00271427,.0002683,0.0251,6.8014,72.3830,325.3812,0,U,32951,999,4581,0,0,0
INTELSAT 25 (IS-25),2008-034A,2026-06-13T20:38:43.174752,0.99036349,.0003118,2.7010,80.4095,58.8646,209.0323,0,U,33153,999,6565,0,-.266E-5,0
GALAXY 19 (G-19),2008-045A,2026-06-13T19:32:01.099104,1.00270360,.0002412,0.0203,354.7535,91.2560,12.1210,0,U,33376,999,6487,0,0,0
FM-5,2009-034A,2026-06-13T19:35:18.931776,1.00269911,.0000943,0.0193,294.7678,13.1346,161.9021,0,U,35493,999,4661,0,-.19E-5,0
INTELSAT 14 (IS-14),2009-064A,2026-06-13T19:47:02.808384,1.00270665,.0002176,0.0148,37.5026,36.8370,79.5697,0,U,36097,999,6057,0,-.263E-5,0
INTELSAT 15 (IS-15),2009-067A,2026-06-13T20:25:41.793024,1.00270981,.0002031,0.0175,43.1816,42.9963,207.5571,0,U,36106,999,4119,0,-.175E-5,0
DIRECTV 12,2009-075A,2026-06-13T16:05:11.907744,1.00266386,.0000585,0.0464,157.5074,209.9292,33.1205,0,U,36131,999,4651,0,-.92E-6,0
INTELSAT 16 (IS-16),2010-006A,2026-06-13T19:38:03.668928,1.00270593,.0001841,0.0114,352.1137,109.4399,18.8935,0,U,36397,999,5962,0,-.234E-5,0
XM-5,2010-053A,2026-06-13T16:01:27.266880,1.00272662,.0002941,0.0645,273.1584,286.0562,187.9360,0,U,37185,999,5744,0,-.12E-6,0
INTELSAT 17 (IS-17),2010-065B,2026-06-13T20:03:28.924416,1.00271123,.0002571,0.0117,98.5474,352.0144,178.4469,0,U,37238,999,5321,0,.9E-7,0
INTELSAT 28 (IS-28),2011-016A,2026-06-13T19:50:47.449248,1.00270468,.000359,1.7973,82.6598,5.0407,80.4261,0,U,37392,999,5325,0,-.216E-5,0
INTELSAT 18 (IS-18),2011-056A,2026-06-13T19:08:25.861056,1.00271856,.0002015,0.0195,290.8969,169.3074,269.0210,0,U,37834,999,5377,0,.63E-6,0
INTELSAT 22 (IS-22),2012-011A,2026-06-13T20:33:18.417024,1.00272110,.0001567,0.0018,356.6636,84.9491,200.9663,0,U,38098,999,715,0,-.48E-6,0
INTELSAT 19 (IS-19),2012-030A,2026-06-13T19:04:26.242752,1.00270516,.0002828,0.0160,9.8244,80.2731,264.1143,0,U,38356,999,5041,0,-.46E-6,0
INTELSAT 20 (IS-20),2012-043A,2026-06-13T20:05:04.399872,1.00271659,.0001395,0.0020,32.5927,141.8285,97.5106,0,U,38740,999,5071,0,-.14E-6,0
INTELSAT 21 (IS-21),2012-045A,2026-06-13T19:43:18.165792,1.00271319,.0001259,0.0154,315.8397,142.8222,41.2990,0,U,38749,999,5049,0,-.275E-5,0
INTELSAT 23 (IS-23),2012-057A,2026-06-13T19:44:40.535232,1.00274002,.0000424,0.0140,342.8665,83.5092,78.9139,0,U,38867,999,4992,0,-.274E-5,0
FM-6,2013-058A,2026-06-13T16:01:19.780320,1.00266318,.0001557,0.0302,40.0804,125.3602,220.5258,0,U,39360,999,4603,0,0,0
INTELSAT 30 (IS-30),2014-062A,2026-06-13T14:24:45.037728,1.00269791,.0001367,0.0268,47.9315,327.0238,8.0934,0,U,40271,999,675,0,-.14E-5,0
DIRECTV 14,2014-078B,2026-06-13T14:23:30.159168,1.00270025,.0000355,0.0106,6.1325,267.2738,105.1420,0,U,40333,999,4200,0,-.114E-5,0
DIRECTV 15,2015-026A,2026-06-13T16:05:11.907744,1.00271089,.0000213,0.0162,23.0450,244.7916,132.5735,0,U,40663,999,4042,0,-.92E-6,0
SKY MEXICO-1,2015-026B,2026-06-13T12:46:42.249216,1.00271084,.000194,0.0093,320.8751,143.3383,270.5142,0,U,40664,999,4041,0,-.223E-5,0
INTELSAT 34 (IS-34),2015-039A,2026-06-13T19:44:03.093792,1.00271005,.000051,0.0106,347.1785,343.3327,172.1492,0,U,40874,999,3960,0,-.275E-5,0
INTELSAT 31 (IS-31),2016-035A,2026-06-13T14:24:45.037728,1.00272356,.0001168,0.0183,270.8261,333.8056,138.4244,0,U,41581,999,3664,0,-.14E-5,0
INTELSAT 36 (IS-36),2016-053A,2026-06-13T20:05:04.377408,1.00271214,.0001917,0.0113,357.4330,330.6184,303.8577,0,U,41747,999,3592,0,-.14E-6,0
INTELSAT 32E (IS-32E),2017-007B,2026-06-13T18:04:49.319904,1.00271604,.0000892,0.0007,354.3537,319.2360,176.5049,0,U,41945,999,3419,0,-.258E-5,0
INTELSAT 35E (IS-35E),2017-041A,2026-06-13T19:50:02.521248,1.00268539,.0001527,0.0260,2.9363,77.2602,84.9604,0,U,42818,999,3278,0,0,0
INTELSAT 37E (IS-37E),2017-059A,2026-06-13T19:54:39.578400,1.00272640,.0002344,0.0184,57.4518,43.3925,81.9719,0,U,42950,999,3203,0,-.13E-5,0
AZERSPACE 2 (IS-38),2018-074A,2026-06-13T21:19:59.817792,1.00271406,.0001266,0.0111,7.5192,90.2404,169.5525,0,U,43632,999,2841,0,.146E-5,0
HORIZONS-3E,2018-074B,2026-06-13T19:05:18.659040,1.00272721,.0000896,0.0185,161.8508,113.8020,81.7793,0,U,43633,999,2830,0,-.2E-6,0
AT&T T-16,2019-034A,2026-06-13T16:05:41.860032,1.00270632,.0000842,0.0185,54.7753,238.4817,109.2990,0,U,44333,999,2559,0,-.104E-5,0
INTELSAT 39 (IS-39),2019-049B,2026-06-13T11:44:09.700224,1.00270508,.00008762,0.0017,349.3933,319.9486,190.4512,0,U,44476,999,2509,0,.45E-6,0
GALAXY 30 (G-30),2020-056C,2026-06-13T17:41:29.059296,1.00270247,.0002051,0.0186,10.8339,78.7779,312.8076,0,U,46114,999,2125,0,.48E-6,0
GALAXY 33 (G-33),2022-128A,2026-06-13T15:56:35.234016,1.00270786,.0001605,0.0110,330.8193,115.0716,282.2380,0,U,54026,999,1370,0,.9E-6,0
GALAXY 34 (G-34),2022-128B,2026-06-13T17:40:21.664704,1.00275311,.0001531,0.0115,29.5169,67.3543,301.2703,0,U,54027,999,1387,0,.69E-6,0
GALAXY 31 (G-31),2022-153A,2026-06-13T15:59:57.410880,1.00270092,.0000966,0.0191,6.2059,69.1084,305.6423,0,U,54243,999,709,0,0,0
GALAXY 32 (G-32),2022-153B,2026-06-13T14:25:37.454880,1.00271032,.0001981,0.0146,26.6441,6.1350,354.5447,0,U,54244,999,1310,0,-.163E-5,0
GALAXY 35 (G-35),2022-170A,2026-06-13T14:25:14.990880,1.00269466,.0001763,0.0201,351.5322,93.6284,299.9584,0,U,54741,999,1285,0,0,0
GALAXY 36 (G-36),2022-170B,2026-06-13T14:26:29.872032,1.00271234,.000248,0.0412,126.2656,317.0469,306.2336,0,U,54742,999,1273,0,-.174E-5,0
GALAXY 37 (G-37),2023-112A,2026-06-13T15:58:20.065728,1.00270884,.0001727,0.0172,46.7643,32.9015,294.8937,0,U,57493,999,1050,0,.59E-6,0
